API VERSION: 1.2
API SOURCE: NASA/JPL Horizons API



*******************************************************************************
Ephemeris / API_USER Fri Apr  3 11:29:00 2026 Pasadena, USA      / Horizons
*******************************************************************************
Target body name: Jupiter (599)                   {source: jup365_merged}
Center body name: Sun (10)                        {source: jup365_merged}
Center-site name: BODY CENTER
*******************************************************************************
Start time      : A.D. 2031-Aug-31 14:23:00.0004 TDB
Stop  time      : A.D. 2031-Sep-02 14:23:00.0004 TDB
Step-size       : 60 minutes
*******************************************************************************
Center geodetic : 0.0, 0.0, 0.0                   {E-lon(deg),Lat(deg),Alt(km)}
Center cylindric: 0.0, 0.0, 0.0                   {E-lon(deg),Dxy(km),Dz(km)}
Center radii    : 695700.0, 695700.0, 695700.0 km {Equator_a, b, pole_c}
Output units    : AU-D
Calendar mode   : Mixed Julian/Gregorian
Output type     : GEOMETRIC cartesian states
Output format   : 3 (position, velocity, LT, range, range-rate)
Reference frame : Ecliptic of J2000.0
*******************************************************************************
            JDTDB,            Calendar Date (TDB),                      X,                      Y,                      Z,                     VX,                     VY,                     VZ,                     LT,                     RG,                     RR,
**************************************************************************************************************************************************************************************************************************************************************************
$$SOE
2463110.099305560, A.D. 2031-Aug-31 14:23:00.0004, -7.465762724056841E-03, -5.253657039782302E+00,  2.200571295678326E-02,  7.463474593251719E-03,  3.403671663296078E-04, -1.683778565583249E-04,  3.034288935275488E-02,  5.253708431257861E+00, -3.516750479900317E-04,
2463110.140972227, A.D. 2031-Aug-31 15:23:00.0004, -7.154783836344204E-03, -5.253642846569682E+00,  2.199869725128132E-02,  7.463510135506061E-03,  3.409076423301230E-04, -1.683760125230927E-04,  3.034280471156341E-02,  5.253693776089856E+00, -3.517736148770847E-04,
2463110.182638893, A.D. 2031-Aug-31 16:23:00.0004, -6.843803705982306E-03, -5.253628630772764E+00,  2.199168162156999E-02,  7.463534173739210E-03,  3.414509488924074E-04, -1.683742286926909E-04,  3.034272004628282E-02,  5.253679116750948E+00, -3.518749880403028E-04,
2463110.224305560, A.D. 2031-Aug-31 17:23:00.0004, -6.532822819023455E-03, -5.253614392306963E+00,  2.198466606388568E-02,  7.463546424609841E-03,  3.419954768170532E-04, -1.683725651352029E-04,  3.034263535643011E-02,  5.253664453157509E+00, -3.519775609214878E-04,
2463110.265972227, A.D. 2031-Aug-31 18:23:00.0004, -6.221841668378309E-03, -5.253600131155526E+00,  2.197765057200090E-02,  7.463546843419567E-03,  3.425395852201771E-04, -1.683710796248987E-04,  3.034255064191337E-02,  5.253649785293627E+00, -3.520796956270677E-04,
2463110.307638893, A.D. 2031-Aug-31 19:23:00.0004, -5.910860743769427E-03, -5.253585847370086E+00,  2.197063513735611E-02,  7.463535628034808E-03,  3.430816388946029E-04, -1.683698262817346E-04,  3.034246590303493E-02,  5.253635113211645E+00, -3.521797602028352E-04,
2463110.349305560, A.D. 2031-Aug-31 20:23:00.0004, -5.599880521651269E-03, -5.253571541069631E+00,  2.196361974923350E-02,  7.463513216528900E-03,  3.436200463188760E-04, -1.683688542766115E-04,  3.034238114048529E-02,  5.253620437031122E+00, -3.522761665486845E-04,
2463110.390972227, A.D. 2031-Aug-31 21:23:00.0004, -5.288901455361754E-03, -5.253557212437901E+00,  2.195660439499158E-02,  7.463480278441863E-03,  3.441532970028399E-04, -1.683682066496030E-04,  3.034229635532810E-02,  5.253605756936226E+00, -3.523674076651578E-04,
2463110.432638893, A.D. 2031-Aug-31 22:23:00.0004, -4.977923965768084E-03, -5.253542861719266E+00,  2.194958906033860E-02,  7.463437699840494E-03,  3.446799969023982E-04, -1.683679192831298E-04,  3.034221154897636E-02,  5.253591073171606E+00, -3.524520929677985E-04,
2463110.474305560, A.D. 2031-Aug-31 23:23:00.0004, -4.666948432656940E-03, -5.253528489213187E+00,  2.194257372965600E-02,  7.463386562628743E-03,  3.451989007559278E-04, -1.683680200643361E-04,  3.034212672316041E-02,  5.253576386036863E+00, -3.525289805252482E-04,
2463110.515972227, A.D. 2031-Sep-01 00:23:00.0004, -4.355975187095015E-03, -5.253514095267411E+00,  2.193555838633790E-02,  7.463328118789502E-03,  3.457089403687631E-04, -1.683685282617031E-04,  3.034204187988872E-02,  5.253561695879750E+00, -3.525970052508848E-04,
2463110.557638893, A.D. 2031-Sep-01 01:23:00.0004, -4.045004504953690E-03, -5.253499680270090E+00,  2.192854301316248E-02,  7.463263760420692E-03,  3.462092480786182E-04, -1.683694541311354E-04,  3.034195702140236E-02,  5.253547003088300E+00, -3.526553022839694E-04,
2463110.599305560, A.D. 2031-Sep-01 02:23:00.0004, -3.734036601752850E-03, -5.253485244641026E+00,  2.192152759267321E-02,  7.463194986553453E-03,  3.466991748543511E-04, -1.683707987571838E-04,  3.034187215012461E-02,  5.253532308082089E+00, -3.527032250153937E-04,
2463110.640972227, A.D. 2031-Sep-01 03:23:00.0004, -3.423071628936053E-03, -5.253470788822280E+00,  2.191451210755619E-02,  7.463123367806252E-03,  3.471783026970687E-04, -1.683725541263168E-04,  3.034178726860675E-02,  5.253517611302859E+00, -3.527403574291907E-04,
2463110.682638893, A.D. 2031-Sep-01 04:23:00.0004, -3.112109671644989E-03, -5.253456313268401E+00,  2.190749654102071E-02,  7.463050509939186E-03,  3.476464512143345E-04, -1.683747034216613E-04,  3.034170237947176E-02,  5.253502913204762E+00, -3.527665206321415E-04,
2463110.724305560, A.D. 2031-Sep-01 05:23:00.0004, -2.801150748017484E-03, -5.253441818436474E+00,  2.190048087714619E-02,  7.462978017334293E-03,  3.481036784174121E-04, -1.683772215225846E-04,  3.034161748535699E-02,  5.253488214244444E+00, -3.527817736223737E-04,
2463110.765972227, A.D. 2031-Sep-01 06:23:00.0004, -2.490194809992179E-03, -5.253427304776272E+00,  2.189346510122330E-02,  7.462907457350646E-03,  3.485502759443762E-04, -1.683800756879584E-04,  3.034153258885738E-02,  5.253473514871205E+00, -3.527864085001463E-04,
2463110.807638893, A.D. 2031-Sep-01 07:23:00.0004, -2.179241745565223E-03, -5.253412772720720E+00,  2.188644920005039E-02,  7.462840326398885E-03,  3.489867590381229E-04, -1.683832263988011E-04,  3.034144769247052E-02,  5.253458815517486E+00, -3.527809404496527E-04,
2463110.849305560, A.D. 2031-Sep-01 08:23:00.0004, -1.868291382411863E-03, -5.253398222676863E+00,  2.187943316219841E-02,  7.462778018460691E-03,  3.494138517100209E-04, -1.683866283340358E-04,  3.034136279854455E-02,  5.253444116589859E+00, -3.527660929218884E-04,
2463110.890972227, A.D. 2031-Sep-01 09:23:00.0004, -1.557343492758203E-03, -5.253383655017554E+00,  2.187241697822731E-02,  7.462721796655665E-03,  3.498324676008774E-04, -1.683902314520720E-04,  3.034127790923043E-02,  5.253429418460747E+00, -3.527427785291411E-04,
2463110.932638893, A.D. 2031-Sep-01 10:23:00.0004, -1.246397799365576E-03, -5.253369070074021E+00,  2.186540064086013E-02,  7.462672768340288E-03,  3.502436871153304E-04, -1.683939821505216E-04,  3.034119302643892E-02,  5.253414721460991E+00, -3.527120762257518E-04,
2463110.974305560, A.D. 2031-Sep-01 11:23:00.0004, -9.354539824720523E-04, -5.253354468129447E+00,  2.185838414510847E-02,  7.462631864117086E-03,  3.506487314575299E-04, -1.683978244763862E-04,  3.034110815180372E-02,  5.253400025873454E+00, -3.526752054012693E-04,
2463111.015972227, A.D. 2031-Sep-01 12:23:00.0004, -6.245116875220982E-04, -5.253339849413681E+00,  2.185136748834031E-02,  7.462599821039239E-03,  3.510489342374497E-04, -1.684017013593150E-04,  3.034102328665099E-02,  5.253385331927758E+00, -3.526334975533974E-04,
2463111.057638893, A.D. 2031-Sep-01 13:23:00.0004, -3.135705335049177E-04, -5.253325214099195E+00,  2.184435067030661E-02,  7.462577170215229E-03,  3.514457113488312E-04, -1.684055558410018E-04,  3.034093843197601E-02,  5.253370639796229E+00, -3.525883662396405E-04,
2463111.099305560, A.D. 2031-Sep-01 14:23:00.0004, -2.630121715170630E-06, -5.253310562298283E+00,  2.183733369310553E-02,  7.462564228944544E-03,  3.518405298395475E-04, -1.684093322745079E-04,  3.034085358842712E-02,  5.253355949591121E+00, -3.525412760262336E-04,
2463111.140972227, A.D. 2031-Sep-01 15:23:00.0004,  3.083099552540424E-04, -5.253295894061591E+00,  2.183031656110787E-02,  7.462561097440317E-03,  3.522348764987175E-04, -1.684129774684697E-04,  3.034076875629721E-02,  5.253341261363149E+00, -3.524937111564319E-04,
2463111.182638893, A.D. 2031-Sep-01 16:23:00.0004,  6.192501044769794E-04, -5.253281209377946E+00,  2.182329928083039E-02,  7.462567660108998E-03,  3.526302268658111E-04, -1.684164417530334E-04,  3.034068393552272E-02,  5.253326575101305E+00, -3.524471446411350E-04,
2463111.224305560, A.D. 2031-Sep-01 17:23:00.0004,  9.301907238070600E-04, -5.253266508175456E+00,  2.181628186077125E-02,  7.462583591250482E-03,  3.530280153180655E-04, -1.684196799472852E-04,  3.034059912569001E-02,  5.253311890733974E+00, -3.524030084259486E-04,
2463111.265972227, A.D. 2031-Sep-01 18:23:00.0004,  1.241132193313867E-03, -5.253251790323807E+00,  2.180926431119846E-02,  7.462608364909381E-03,  3.534296068073181E-04, -1.684226522121714E-04,  3.034051432604861E-02,  5.253297208131213E+00, -3.523626652037035E-04,
2463111.307638893, A.D. 2031-Sep-01 19:23:00.0004,  1.552074867210025E-03, -5.253237055637718E+00,  2.180224664391917E-02,  7.462641268450114E-03,  3.538362706927071E-04, -1.684253247785617E-04,  3.034042953553110E-02,  5.253282527108204E+00, -3.523273823170110E-04,
